[{"OBJECT_NAME":"STARLINK-5334","OBJECT_ID":"2023-065G","EPOCH":"2026-03-09T10:15:42.668352","MEAN_MOTION":15.02535538,"ECCENTRICITY":8.835e-5,"INCLINATION":43.002,"RA_OF_ASC_NODE":211.9072,"ARG_OF_PERICENTER":244.2846,"MEAN_ANOMALY":115.7905,"EPHEMERIS_TYPE":0,"CLASSIFICATION_TYPE":"U","NORAD_CAT_ID":56509,"ELEMENT_SET_NO":999,"REV_AT_EPOCH":15658,"BSTAR":1.4867582e-5,"MEAN_MOTION_DOT":-3.0e-8,"MEAN_MOTION_DDOT":0},{"OBJECT_NAME":"HELIOS 2A","OBJECT_ID":"2004-049A","EPOCH":"2026-03-09T21:12:23.746752","MEAN_MOTION":15.02457036,"ECCENTRICITY":0.00022964,"INCLINATION":98.268,"RA_OF_ASC_NODE":116.0483,"ARG_OF_PERICENTER":298.4853,"MEAN_ANOMALY":61.6139,"EPHEMERIS_TYPE":0,"CLASSIFICATION_TYPE":"U","NORAD_CAT_ID":28492,"ELEMENT_SET_NO":999,"REV_AT_EPOCH":13885,"BSTAR":0.0002328623,"MEAN_MOTION_DOT":3.02e-5,"MEAN_MOTION_DDOT":0}]
